SL-8 R/B                
1 15483U 85006B   26201.22537800  .00000139  00000+0  54844-4 0  9999
2 15483  74.0456  17.2633 0019236 259.6095 273.5229 14.37847015173076
SL-12 R/B(2)            
1 15772U 85042D   26201.15801329  .00000036  00000+0  37675-4 0  9991
2 15772  71.1071 167.8563 0037366 278.9078 164.2657 14.22011607133229
SL-14 R/B               
1 15945U 85069B   26201.15240879  .00000181  00000+0  17530-4 0  9998
2 15945  82.5256 260.3640 0020254 111.9863 248.3509 14.86536938192519
SL-16 R/B               
1 16182U 85097B   26201.30414892  .00000213  00000+0  13079-3 0  9997
2 16182  71.0005 221.3563 0005857  41.1769 329.6317 14.16615301106015
SL-14 R/B               
1 16496U 86006B   26200.82334091  .00000229  00000+0  21429-4 0  9990
2 16496  82.5284 135.4030 0075860 193.3887 166.5320 14.86970144168842
COSMOS 1743             
1 16719U 86034A   26201.25744954  .00036709  00000+0  30468-3 0  9994
2 16719  82.5269 293.4914 0005554 161.2711 198.8757 15.69996146200977
SL-14 R/B               
1 16792U 86046B   26201.28952921  .00000251  00000+0  25975-4 0  9997
2 16792  82.4840 314.8978 0023967 146.6440 213.6292 14.85692848146095
SL-14 R/B               
1 16882U 86055B   26201.23421712  .00000239  00000+0  24744-4 0  9990
2 16882  82.5208   2.0581 0017387 252.1470 280.9962 14.85742265139042
AJISAI (EGS)            
1 16908U 86061A   26201.32477417 -.00000104  00000+0 -45467-4 0  9997
2 16908  50.0104  45.4981 0011077 265.0052 265.6062 12.44516686484515
SL-14 R/B               
1 17567U 87024B   26201.07274908  .00000237  00000+0  24136-4 0  9996
2 17567  82.5303 328.3400 0018281 177.4627 182.6686 14.86233770107795
COSMOS 1833             
1 17589U 87027A   26201.02525796  .00000001  00000+0  26154-4 0  9993
2 17589  70.9213  47.8479 0024599   0.9859 359.1306 14.13067573 29019
SL-16 R/B               
1 17590U 87027B   26201.17889588  .00000184  00000+0  11505-3 0  9998
2 17590  71.0039 357.3032 0007213 276.6778  83.3525 14.17175459 34112
SL-14 R/B               
1 17912U 87038B   26201.20325940  .00000258  00000+0  26997-4 0  9993
2 17912  82.5017 171.9732 0020865  86.8871 273.4732 14.85463480 98901
COSMOS 1844             
1 17973U 87041A   26201.20109665 -.00000050  00000+0 -56723-6 0  9992
2 17973  70.9000 114.6716 0030980 188.0983 171.9643 14.14581301 22326
SL-14 R/B               
1 18153U 87055B   26201.08936891  .00000187  00000+0  18704-4 0  9997
2 18153  82.4968 224.2107 0019156 297.7390  62.1883 14.85728687 89599
COSMOS 1867             
1 18187U 87060A   26201.24726935 -.00000057  00000+0  16098-4 0  9995
2 18187  65.0115 295.4718 0017275 281.9404  77.9743 14.31518821 38913
SL-14 R/B               
1 18749U 88001B   26201.09373184  .00000194  00000+0  19460-4 0  9999
2 18749  82.5116  70.8128 0018571 155.9788 204.2299 14.85628489 61689
COSMOS 1933             
1 18958U 88020A   26200.84709819  .00002029  00000+0  95737-4 0  9992
2 18958  82.5141 120.0908 0005947  95.4760 264.7153 15.18906941 70289
SL-3 R/B                
1 19046U 88032B   26201.20404453  .00002186  00000+0  10074-3 0  9995
2 19046  97.5280 184.2201 0026881 129.0656 231.2977 15.21053298 72247
SL-16 R/B               
1 19120U 88039B   26201.09710892  .00000090  00000+0  65027-4 0  9990
2 19120  71.0144 148.5702 0020350 141.4320 218.8264 14.19631818977178
COSMOS 1953             
1 19210U 88050A   26200.97696635  .00004315  00000+0  14552-3 0  9997
2 19210  82.5070  24.9533 0011084  24.3062 335.8699 15.30375803 58005
SL-8 R/B                
1 19257U 88053B   26201.16765486  .00000096  00000+0  39615-4 0  9994
2 19257  74.0452 228.2625 0019914  12.3119  49.1615 14.38979652995650
COSMOS 1975             
1 19573U 88093A   26200.86519217  .00004269  00000+0  14692-3 0  9997
2 19573  82.5207 344.8197 0012351  67.9299 292.3251 15.29698174 39605
SL-14 R/B               
1 19574U 88093B   26201.19843568  .00000182  00000+0  18167-4 0  9996
2 19574  82.5311 277.6552 0019614 323.1193  59.2754 14.85761790 20692
SL-16 R/B               
1 19650U 88102B   26201.13273281  .00000158  00000+0  10371-3 0  9996
2 19650  70.9972 232.8175 0014026 177.8400 182.2786 14.16167361945643
INTERCOSMOS 24          
1 20261U 89080A   26200.97499791  .00000131  00000+0  35328-4 0  9990
2 20261  82.6056  18.3021 1186950 345.8500  11.1837 12.59693092683453
SL-14 R/B               
1 20262U 89080C   26201.12296675  .00000056  00000+0  15723-4 0  9998
2 20262  82.5928  88.1452 1228894 242.0164 105.1341 12.50579051676705
DELTA 1 R/B             
1 20323U 89089B   26201.11904557  .00000132  00000+0  41006-4 0  9997
2 20323  97.0638  27.4074 0070535  64.7512 296.0975 14.50749458914935
ARIANE 40 R/B           
1 20443U 90005H   26201.12096961  .00000076  00000+0  37656-4 0  9995
2 20443  98.2940 257.7098 0010596 159.7765 200.3846 14.39942009911865
DELTA 2 R/B(1)          
1 20453U 90008B   26200.77850015  .00091056  00000+0  54177-3 0  9991
2 20453  35.6000  16.7310 0056662  59.8148 300.8190 15.74370139946839
