OBJECT_NAME,OBJECT_ID,EPOCH,MEAN_MOTION,ECCENTRICITY,INCLINATION,RA_OF_ASC_NODE,ARG_OF_PERICENTER,MEAN_ANOMALY,EPHEMERIS_TYPE,CLASSIFICATION_TYPE,NORAD_CAT_ID,ELEMENT_SET_NO,REV_AT_EPOCH,BSTAR,MEAN_MOTION_DOT,MEAN_MOTION_DDOT
SL-8 R/B,1985-006B,2026-07-20T05:24:32.659200,14.37847015,.00192363,74.0456,17.2633,259.6095,273.5229,0,U,15483,999,17307,.54844265E-4,.139E-5,0
SL-12 R/B(2),1985-042D,2026-07-20T03:47:32.348256,14.22011607,.00373661,71.1071,167.8563,278.9078,164.2657,0,U,15772,999,13322,.37675116E-4,.36E-6,0
SL-14 R/B,1985-069B,2026-07-20T03:39:28.119456,14.86536938,.0020254,82.5256,260.3640,111.9863,248.3509,0,U,15945,999,19251,.17529768E-4,.181E-5,0
SL-16 R/B,1985-097B,2026-07-20T07:17:58.466688,14.16615301,.00058571,71.0005,221.3563,41.1769,329.6317,0,U,16182,999,10601,.13079479E-3,.213E-5,0
SL-14 R/B,1986-006B,2026-07-19T19:45:36.654624,14.86970144,.00758606,82.5284,135.4030,193.3887,166.5320,0,U,16496,999,16884,.21428748E-4,.229E-5,0
COSMOS 1743,1986-034A,2026-07-20T06:10:43.640256,15.69996146,.00055542,82.5269,293.4914,161.2711,198.8757,0,U,16719,999,20097,.3046756E-3,.36709E-3,0
SL-14 R/B,1986-046B,2026-07-20T06:56:55.323744,14.85692848,.00239677,82.4840,314.8978,146.6440,213.6292,0,U,16792,999,14609,.25975158E-4,.251E-5,0
SL-14 R/B,1986-055B,2026-07-20T05:37:16.359168,14.85742265,.0017387,82.5208,2.0581,252.1470,280.9962,0,U,16882,999,13904,.24744296E-4,.239E-5,0
AJISAI (EGS),1986-061A,2026-07-20T07:47:40.488288,12.44516686,.00110773,50.0104,45.4981,265.0052,265.6062,0,U,16908,999,48451,-.45466533E-4,-.104E-5,0
SL-14 R/B,1987-024B,2026-07-20T01:44:45.520512,14.86233770,.00182816,82.5303,328.3400,177.4627,182.6686,0,U,17567,999,10779,.2413556E-4,.237E-5,0
COSMOS 1833,1987-027A,2026-07-20T00:36:22.287744,14.13067573,.00245991,70.9213,47.8479,0.9859,359.1306,0,U,17589,999,2901,.26153863E-4,.1E-7,0
SL-16 R/B,1987-027B,2026-07-20T04:17:36.604032,14.17175459,.00072131,71.0039,357.3032,276.6778,83.3525,0,U,17590,999,3411,.11505041E-3,.184E-5,0
SL-14 R/B,1987-038B,2026-07-20T04:52:41.612160,14.85463480,.00208651,82.5017,171.9732,86.8871,273.4732,0,U,17912,999,9890,.26996793E-4,.258E-5,0
COSMOS 1844,1987-041A,2026-07-20T04:49:34.750560,14.14581301,.00309807,70.9000,114.6716,188.0983,171.9643,0,U,17973,999,2232,-.56723E-6,-.5E-6,0
SL-14 R/B,1987-055B,2026-07-20T02:08:41.473824,14.85728687,.00191564,82.4968,224.2107,297.7390,62.1883,0,U,18153,999,8959,.18703638E-4,.187E-5,0
COSMOS 1867,1987-060A,2026-07-20T05:56:04.071840,14.31518821,.00172756,65.0115,295.4718,281.9404,77.9743,0,U,18187,999,3891,.16098447E-4,-.57E-6,0
SL-14 R/B,1988-001B,2026-07-20T02:14:58.430976,14.85628489,.00185719,82.5116,70.8128,155.9788,204.2299,0,U,18749,999,6168,.19460337E-4,.194E-5,0
COSMOS 1933,1988-020A,2026-07-19T20:19:49.283616,15.18906941,.00059477,82.5141,120.0908,95.4760,264.7153,0,U,18958,999,7028,.95736526E-4,.2029E-4,0
SL-3 R/B,1988-032B,2026-07-20T04:53:49.447392,15.21053298,.00268813,97.5280,184.2201,129.0656,231.2977,0,U,19046,999,7224,.10074347E-3,.2186E-4,0
SL-16 R/B,1988-039B,2026-07-20T02:19:50.210688,14.19631818,.00203507,71.0144,148.5702,141.4320,218.8264,0,U,19120,999,97717,.6502686E-4,.9E-6,0
COSMOS 1953,1988-050A,2026-07-19T23:26:49.892640,15.30375803,.00110846,82.5070,24.9533,24.3062,335.8699,0,U,19210,999,5800,.14552198E-3,.4315E-4,0
SL-8 R/B,1988-053B,2026-07-20T04:01:25.379904,14.38979652,.00199144,74.0452,228.2625,12.3119,49.1615,0,U,19257,999,99565,.39615233E-4,.96E-6,0
COSMOS 1975,1988-093A,2026-07-19T20:45:52.603488,15.29698174,.00123513,82.5207,344.8197,67.9299,292.3251,0,U,19573,999,3960,.14691768E-3,.4269E-4,0
SL-14 R/B,1988-093B,2026-07-20T04:45:44.842752,14.85761790,.00196143,82.5311,277.6552,323.1193,59.2754,0,U,19574,999,2069,.18167346E-4,.182E-5,0
SL-16 R/B,1988-102B,2026-07-20T03:11:08.114784,14.16167361,.00140263,70.9972,232.8175,177.8400,182.2786,0,U,19650,999,94564,.10371222E-3,.158E-5,0
INTERCOSMOS 24,1989-080A,2026-07-19T23:23:59.819424,12.59693092,.11869508,82.6056,18.3021,345.8500,11.1837,0,U,20261,999,68345,.35328484E-4,.131E-5,0
SL-14 R/B,1989-080C,2026-07-20T02:57:04.327200,12.50579051,.1228894,82.5928,88.1452,242.0164,105.1341,0,U,20262,999,67670,.15723351E-4,.56E-6,0
DELTA 1 R/B,1989-089B,2026-07-20T02:51:25.537248,14.50749458,.00705354,97.0638,27.4074,64.7512,296.0975,0,U,20323,999,91493,.41006369E-4,.132E-5,0
ARIANE 40 R/B,1990-005H,2026-07-20T02:54:11.774304,14.39942009,.00105965,98.2940,257.7098,159.7765,200.3846,0,U,20443,999,91186,.37656086E-4,.76E-6,0
DELTA 2 R/B(1),1990-008B,2026-07-19T18:41:02.412960,15.74370139,.00566622,35.6000,16.7310,59.8148,300.8190,0,U,20453,999,94683,.54176583E-3,.91056E-3,0
